STARLINK-4017           
1 52682U 22053AC  26068.48974602 -.00000615  00000+0 -20596-4 0  9996
2 52682  53.2172 145.0152 0000814  85.6039 274.5046 15.08836483211128
KUIPER-00148            
1 65769U 25217H   26068.27522507  .00015783  00000+0  98730-3 0  9995
2 65769  51.8794  26.5769 0008108 351.8096   8.2745 15.09536529 25078
